QIANFAN-81              
1 63167U 25046J   25298.79206713  .00000109  00000+0  14973-3 0  9997
2 63167  88.9774 324.8383 0012756 257.3604 102.6121 13.50989748 41010
QIANFAN-82              
1 63168U 25046K   25298.82535957  .00000069  00000+0  88560-4 0  9996
2 63168  88.9775 324.8785 0010842 266.2948  93.6963 13.50971666 41004
QIANFAN-83              
1 63169U 25046L   25298.79819603  .00000049  00000+0  47860-4 0  9992
2 63169  88.9775 324.7518 0012178 252.2951 107.6877 13.61966043 41073
QIANFAN-84              
1 63170U 25046M   25298.77951477 -.00000017  00000+0 -44459-4 0  9996
2 63170  88.9774 325.0159 0013887 262.6753  97.2820 13.50987717 40926
QIANFAN-85              
1 63171U 25046N   25298.77596536  .00000108  00000+0  14816-3 0  9990
2 63171  88.9774 324.8884 0011198 265.2189  94.7684 13.50974997 40997
QIANFAN-86              
1 63172U 25046P   25298.78423501  .00000198  00000+0  28901-3 0  9992
2 63172  88.9776 324.7485 0009068 270.2599  89.7513 13.50972750 41070
QIANFAN-87              
1 63173U 25046Q   25298.82947279  .00000022  00000+0  14882-4 0  9991
2 63173  88.9773 324.8574 0009734 264.1227  95.8815 13.50969312 41015
QIANFAN-88              
1 63174U 25046R   25298.77188968  .00000084  00000+0  11181-3 0  9994
2 63174  88.9775 324.8167 0010122 273.9155  86.0839 13.50970811 41033
